[{"OBJECT_NAME":"OBJECT D","OBJECT_ID":"2025-313D","EPOCH":"2026-03-09T21:56:57.808608","MEAN_MOTION":14.89111186,"ECCENTRICITY":0.01485836,"INCLINATION":97.5765,"RA_OF_ASC_NODE":143.4472,"ARG_OF_PERICENTER":297.1144,"MEAN_ANOMALY":61.4984,"EPHEMERIS_TYPE":0,"CLASSIFICATION_TYPE":"U","NORAD_CAT_ID":67251,"ELEMENT_SET_NO":999,"REV_AT_EPOCH":1062,"BSTAR":0.00021863983,"MEAN_MOTION_DOT":2.471e-5,"MEAN_MOTION_DDOT":0},{"OBJECT_NAME":"DMSP 5D-2 F13 DEB","OBJECT_ID":"1995-015JH","EPOCH":"2026-03-08T14:27:56.532960","MEAN_MOTION":14.5193186,"ECCENTRICITY":0.00250411,"INCLINATION":98.5578,"RA_OF_ASC_NODE":125.1939,"ARG_OF_PERICENTER":123.2009,"MEAN_ANOMALY":237.1591,"EPHEMERIS_TYPE":0,"CLASSIFICATION_TYPE":"U","NORAD_CAT_ID":42315,"ELEMENT_SET_NO":999,"REV_AT_EPOCH":55326,"BSTAR":0.0028049282,"MEAN_MOTION_DOT":0.0001133,"MEAN_MOTION_DDOT":0}]
